[{"OBJECT_NAME":"STARLINK-4726","OBJECT_ID":"2022-111AF","EPOCH":"2026-03-09T20:35:08.069856","MEAN_MOTION":15.088405,"ECCENTRICITY":0.00012488,"INCLINATION":53.2167,"RA_OF_ASC_NODE":263.2327,"ARG_OF_PERICENTER":88.4404,"MEAN_ANOMALY":271.6731,"EPHEMERIS_TYPE":0,"CLASSIFICATION_TYPE":"U","NORAD_CAT_ID":53802,"ELEMENT_SET_NO":999,"REV_AT_EPOCH":19384,"BSTAR":5.8338932e-5,"MEAN_MOTION_DOT":6.41e-6,"MEAN_MOTION_DDOT":0},{"OBJECT_NAME":"MUSAT-2","OBJECT_ID":"2024-043B","EPOCH":"2026-03-09T22:04:01.255008","MEAN_MOTION":15.07177436,"ECCENTRICITY":0.0006495,"INCLINATION":97.8438,"RA_OF_ASC_NODE":205.4399,"ARG_OF_PERICENTER":314.3478,"MEAN_ANOMALY":45.7216,"EPHEMERIS_TYPE":0,"CLASSIFICATION_TYPE":"U","NORAD_CAT_ID":59099,"ELEMENT_SET_NO":999,"REV_AT_EPOCH":11013,"BSTAR":0.00067214198,"MEAN_MOTION_DOT":0.00010059,"MEAN_MOTION_DDOT":0}]
